{
  "type": "FeatureCollection",
  "features": [
    {
      "type": "Feature",
      "properties": {
        "norad_id": 28890,
        "name": "BEIJING 1",
        "group": "dmc",
        "lat": 13.068706894200968,
        "lon": -50.735410537725876,
        "alt_km": 678.4510090676085,
        "timestamp": "2025-12-25T19:00:39.014686+00:00",
        "meta_object_name": "BEIJING 1",
        "meta_object_id": "2005-043A",
        "meta_epoch": "2025-12-25T08:24:25.390368",
        "meta_mean_motion": 14.63377398,
        "meta_eccentricity": 0.00158314,
        "meta_inclination": 98.2665,
        "meta_ra_of_asc_node": 126.8878,
        "meta_arg_of_pericenter": 104.3958,
        "meta_mean_anomaly": 255.9003,
        "meta_ephemeris_type": 0,
        "meta_classification_type": "U",
        "meta_norad_cat_id": 28890,
        "meta_element_set_no": 999,
        "meta_rev_at_epoch": 7522,
        "meta_bstar": 9.845992e-05,
        "meta_mean_motion_dot": 4.61e-06,
        "meta_mean_motion_ddot": 0,
        "tle_line1": "1 28890U 05043A   25359.35029387  .00000461  00000+0  98460-4 0  9991",
        "tle_line2": "2 28890  98.2665 126.8878 0015831 104.3958 255.9003 14.63377398 75224"
      },
      "geometry": {
        "type": "Point",
        "coordinates": [
          -50.735410537725876,
          13.068706894200968
        ]
      }
    },
    {
      "type": "Feature",
      "properties": {
        "norad_id": 33320,
        "name": "HUANJING 1A (HJ-1A)",
        "group": "dmc",
        "lat": 53.0822096474332,
        "lon": -22.766516275807845,
        "alt_km": 607.0526012346963,
        "timestamp": "2025-12-25T19:00:39.014710+00:00",
        "meta_object_name": "HUANJING 1A (HJ-1A)",
        "meta_object_id": "2008-041A",
        "meta_epoch": "2025-12-25T07:26:16.751040",
        "meta_mean_motion": 14.83431632,
        "meta_eccentricity": 0.00192193,
        "meta_inclination": 97.655,
        "meta_ra_of_asc_node": 347.0838,
        "meta_arg_of_pericenter": 354.2233,
        "meta_mean_anomaly": 5.8757,
        "meta_ephemeris_type": 0,
        "meta_classification_type": "U",
        "meta_norad_cat_id": 33320,
        "meta_element_set_no": 999,
        "meta_rev_at_epoch": 93262,
        "meta_bstar": 0.00019028127,
        "meta_mean_motion_dot": 1.516e-05,
        "meta_mean_motion_ddot": 0,
        "tle_line1": "1 33320U 08041A   25359.30991610  .00001516  00000+0  19028-3 0  9992",
        "tle_line2": "2 33320  97.6550 347.0838 0019219 354.2233   5.8757 14.83431632932621"
      },
      "geometry": {
        "type": "Point",
        "coordinates": [
          -22.766516275807845,
          53.0822096474332
        ]
      }
    },
    {
      "type": "Feature",
      "properties": {
        "norad_id": 33321,
        "name": "HUANJING 1B (HJ-1B)",
        "group": "dmc",
        "lat": -66.30760287831298,
        "lon": 153.39493401983694,
        "alt_km": 649.6562160398362,
        "timestamp": "2025-12-25T19:00:39.014725+00:00",
        "meta_object_name": "HUANJING 1B (HJ-1B)",
        "meta_object_id": "2008-041B",
        "meta_epoch": "2025-12-25T06:33:42.450336",
        "meta_mean_motion": 14.82854674,
        "meta_eccentricity": 0.00377199,
        "meta_inclination": 97.6407,
        "meta_ra_of_asc_node": 350.7128,
        "meta_arg_of_pericenter": 36.0341,
        "meta_mean_anomaly": 324.3405,
        "meta_ephemeris_type": 0,
        "meta_classification_type": "U",
        "meta_norad_cat_id": 33321,
        "meta_element_set_no": 999,
        "meta_rev_at_epoch": 93263,
        "meta_bstar": 0.00024306087,
        "meta_mean_motion_dot": 1.941e-05,
        "meta_mean_motion_ddot": 0,
        "tle_line1": "1 33321U 08041B   25359.27340799  .00001941  00000+0  24306-3 0  9992",
        "tle_line2": "2 33321  97.6407 350.7128 0037719  36.0341 324.3405 14.82854674932630"
      },
      "geometry": {
        "type": "Point",
        "coordinates": [
          153.39493401983694,
          -66.30760287831298
        ]
      }
    },
    {
      "type": "Feature",
      "properties": {
        "norad_id": 33446,
        "name": "YAOGAN-4",
        "group": "dmc",
        "lat": 26.53687850842796,
        "lon": 113.75051217581375,
        "alt_km": 624.884961770178,
        "timestamp": "2025-12-25T19:00:39.014745+00:00",
        "meta_object_name": "YAOGAN-4",
        "meta_object_id": "2008-061A",
        "meta_epoch": "2025-12-25T06:59:02.368032",
        "meta_mean_motion": 14.82718056,
        "meta_eccentricity": 0.00129714,
        "meta_inclination": 97.9197,
        "meta_ra_of_asc_node": 289.268,
        "meta_arg_of_pericenter": 278.7687,
        "meta_mean_anomaly": 81.2057,
        "meta_ephemeris_type": 0,
        "meta_classification_type": "U",
        "meta_norad_cat_id": 33446,
        "meta_element_set_no": 999,
        "meta_rev_at_epoch": 91989,
        "meta_bstar": 0.00017932841,
        "meta_mean_motion_dot": 1.395e-05,
        "meta_mean_motion_ddot": 0,
        "tle_line1": "1 33446U 08061A   25359.29099963  .00001395  00000+0  17933-3 0  9999",
        "tle_line2": "2 33446  97.9197 289.2680 0012971 278.7687  81.2057 14.82718056919895"
      },
      "geometry": {
        "type": "Point",
        "coordinates": [
          113.75051217581375,
          26.53687850842796
        ]
      }
    },
    {
      "type": "Feature",
      "properties": {
        "norad_id": 35681,
        "name": "DEIMOS-1",
        "group": "dmc",
        "lat": -77.67572384218242,
        "lon": -161.8561272037717,
        "alt_km": 653.9011293886178,
        "timestamp": "2025-12-25T19:00:39.014756+00:00",
        "meta_object_name": "DEIMOS-1",
        "meta_object_id": "2009-041A",
        "meta_epoch": "2025-12-25T06:20:58.631136",
        "meta_mean_motion": 14.74969571,
        "meta_eccentricity": 0.00024802,
        "meta_inclination": 97.7157,
        "meta_ra_of_asc_node": 159.2854,
        "meta_arg_of_pericenter": 60.1323,
        "meta_mean_anomaly": 300.0133,
        "meta_ephemeris_type": 0,
        "meta_classification_type": "U",
        "meta_norad_cat_id": 35681,
        "meta_element_set_no": 999,
        "meta_rev_at_epoch": 88124,
        "meta_bstar": 6.8820495e-05,
        "meta_mean_motion_dot": 4.15e-06,
        "meta_mean_motion_ddot": 0,
        "tle_line1": "1 35681U 09041A   25359.26456749  .00000415  00000+0  68820-4 0  9991",
        "tle_line2": "2 35681  97.7157 159.2854 0002480  60.1323 300.0133 14.74969571881240"
      },
      "geometry": {
        "type": "Point",
        "coordinates": [
          -161.8561272037717,
          -77.67572384218242
        ]
      }
    },
    {
      "type": "Feature",
      "properties": {
        "norad_id": 35683,
        "name": "UK-DMC 2",
        "group": "dmc",
        "lat": -33.28213960042036,
        "lon": 139.5281761540115,
        "alt_km": 649.9028252802791,
        "timestamp": "2025-12-25T19:00:39.014767+00:00",
        "meta_object_name": "UK-DMC 2",
        "meta_object_id": "2009-041C",
        "meta_epoch": "2025-12-25T07:46:16.420224",
        "meta_mean_motion": 14.75646042,
        "meta_eccentricity": 0.00015629,
        "meta_inclination": 97.8574,
        "meta_ra_of_asc_node": 133.8721,
        "meta_arg_of_pericenter": 92.5842,
        "meta_mean_anomaly": 267.5547,
        "meta_ephemeris_type": 0,
        "meta_classification_type": "U",
        "meta_norad_cat_id": 35683,
        "meta_element_set_no": 999,
        "meta_rev_at_epoch": 88092,
        "meta_bstar": 9.5606317e-05,
        "meta_mean_motion_dot": 6.04e-06,
        "meta_mean_motion_ddot": 0,
        "tle_line1": "1 35683U 09041C   25359.32380116  .00000604  00000+0  95606-4 0  9996",
        "tle_line2": "2 35683  97.8574 133.8721 0001562  92.5842 267.5547 14.75646042880928"
      },
      "geometry": {
        "type": "Point",
        "coordinates": [
          139.5281761540115,
          -33.28213960042036
        ]
      }
    },
    {
      "type": "Feature",
      "properties": {
        "norad_id": 40715,
        "name": "DMC3-FM1",
        "group": "dmc",
        "lat": 63.11325719422198,
        "lon": 61.9178500484921,
        "alt_km": 608.5085200742997,
        "timestamp": "2025-12-25T19:00:39.014778+00:00",
        "meta_object_name": "DMC3-FM1",
        "meta_object_id": "2015-032A",
        "meta_epoch": "2025-12-25T07:10:28.032384",
        "meta_mean_motion": 14.85459215,
        "meta_eccentricity": 0.00040746,
        "meta_inclination": 97.668,
        "meta_ra_of_asc_node": 226.0334,
        "meta_arg_of_pericenter": 268.9472,
        "meta_mean_anomaly": 91.1277,
        "meta_ephemeris_type": 0,
        "meta_classification_type": "U",
        "meta_norad_cat_id": 40715,
        "meta_element_set_no": 999,
        "meta_rev_at_epoch": 56409,
        "meta_bstar": 3.7812443e-05,
        "meta_mean_motion_dot": 2.75e-06,
        "meta_mean_motion_ddot": 0,
        "tle_line1": "1 40715U 15032A   25359.29893556  .00000275  00000+0  37812-4 0  9997",
        "tle_line2": "2 40715  97.6680 226.0334 0004074 268.9472  91.1277 14.85459215564093"
      },
      "geometry": {
        "type": "Point",
        "coordinates": [
          61.9178500484921,
          63.11325719422198
        ]
      }
    },
    {
      "type": "Feature",
      "properties": {
        "norad_id": 40716,
        "name": "DMC3-FM2",
        "group": "dmc",
        "lat": -4.355307244779403,
        "lon": -131.45014242024038,
        "alt_km": 615.2624041854606,
        "timestamp": "2025-12-25T19:00:39.014789+00:00",
        "meta_object_name": "DMC3-FM2",
        "meta_object_id": "2015-032B",
        "meta_epoch": "2025-12-25T06:05:50.422848",
        "meta_mean_motion": 14.85461869,
        "meta_eccentricity": 0.00046331,
        "meta_inclination": 97.6736,
        "meta_ra_of_asc_node": 227.4429,
        "meta_arg_of_pericenter": 275.5749,
        "meta_mean_anomaly": 84.4938,
        "meta_ephemeris_type": 0,
        "meta_classification_type": "U",
        "meta_norad_cat_id": 40716,
        "meta_element_set_no": 999,
        "meta_rev_at_epoch": 56408,
        "meta_bstar": 0.0001082045,
        "meta_mean_motion_dot": 8.82e-06,
        "meta_mean_motion_ddot": 0,
        "tle_line1": "1 40716U 15032B   25359.25405582  .00000882  00000+0  10820-3 0  9995",
        "tle_line2": "2 40716  97.6736 227.4429 0004633 275.5749  84.4938 14.85461869564084"
      },
      "geometry": {
        "type": "Point",
        "coordinates": [
          -131.45014242024038,
          -4.355307244779403
        ]
      }
    },
    {
      "type": "Feature",
      "properties": {
        "norad_id": 40717,
        "name": "DMC3-FM3",
        "group": "dmc",
        "lat": -58.67989233887335,
        "lon": 36.792027895285706,
        "alt_km": 617.0924824689628,
        "timestamp": "2025-12-25T19:00:39.014799+00:00",
        "meta_object_name": "DMC3-FM3",
        "meta_object_id": "2015-032C",
        "meta_epoch": "2025-12-25T06:37:08.293152",
        "meta_mean_motion": 14.85449224,
        "meta_eccentricity": 0.00038913,
        "meta_inclination": 97.6792,
        "meta_ra_of_asc_node": 229.1053,
        "meta_arg_of_pericenter": 276.7288,
        "meta_mean_anomaly": 83.3485,
        "meta_ephemeris_type": 0,
        "meta_classification_type": "U",
        "meta_norad_cat_id": 40717,
        "meta_element_set_no": 999,
        "meta_rev_at_epoch": 56409,
        "meta_bstar": 0.00014266314,
        "meta_mean_motion_dot": 1.178e-05,
        "meta_mean_motion_ddot": 0,
        "tle_line1": "1 40717U 15032C   25359.27579043  .00001178  00000+0  14266-3 0  9999",
        "tle_line2": "2 40717  97.6792 229.1053 0003891 276.7288  83.3485 14.85449224564092"
      },
      "geometry": {
        "type": "Point",
        "coordinates": [
          36.792027895285706,
          -58.67989233887335
        ]
      }
    }
  ]
}